Name,Address,Latitude,Longitude,Phone number,Maintenance frequency,Last maintenance
"Plateau sportif de GrammontTerrain 9, 10, 11",avenue albert Einstein 34000 Montpellier,3.93392108647369,43.6136351580956,+33 4 67 64 87 70,Tous les ans,2019-05-15
MEDIATHEQUE JEAN-JACQUES ROUSSEAU,,,,,,
MEDIATHEQUE William SHAKESPEARE,,,,,,
MIBI,,,,,,
MAISON POUR TOUS LEO LAGRANGE,155 Rue de Bologne 34172 Montpellier,,,+33 4 67 40 33 57,Tous les ans,2020-10-06
Piscine M. SPILLIAERT,154 rue C.Desmoulins Montpellier,3.84314264933544,43.5982457955311,+33 4 67 42 00 92,,
Hôtel de Ville,1 place Georges Frêche 34267 Montpellier,3.8965223400675,43.5987299511122,+33 4 67 34 70 00,Tous les ans,2019-05-15
Centre municipal Garosud,3490 avenue Etienne Méhul 34070 Montpellier,3.85859224065433,43.5725732270947,+33 4 67 34 74 62,Tous les ans,2019-11-07
MOCO,,,,,,
Le Petit Prince de Boutonnet,20 Rue Emile Littré 34090 Montpellier,,,+33 4 67 72 13 12,Tous les ans,2020-11-06
EHPAD Pierre LAROQUE,830 rue de Salaison 34000 Montpellier,,,+33 4 67 16 67 00,,
BELEM,,,,,,
EHPAD Françoise GAUFFIER,135 Zac Ovalie rue André Puig Aubert 34000 Montpellier,,,+33 4 99 54 96 70,,
Crèche Edelweiss,21 rue Général Riu 34000 Montpellier,,,+33 4 67 64 08 11,Tous les ans,2020-11-05
Crèche Robin des bois,280 boulevard Pénélope 34000 Montpellier,,,+33 4 99 64 22 50,Tous les ans,2020-11-09
EHPAD Simone DEMANGEL,570 rue Rouget de L'Isle 34000 Montpellier,,,+33 4 67 42 80 33,,
Ecole maternelle Louis-Figuier - Ecole élémentaire Paul Bert- Victor Hugo,14 rue Farges 34000 Montpellier,3.8818749427812,43.6040988665753,+33 4 67 65 64 89,Tous les ans,2019-12-01
Crèche JOSEPHINE BAKER,164 avenue Jean Prat 34070 Montpellier,,,+33 4 99 54 53 50,Tous les ans,2020-11-10
"EHPAD ""Michel BELORGEOT""",41 impasse des Moulins 34000,,,+33 4 67 40 04 44,,
EHPAD Montpellieret,3 rue Fabre 34000,,,+33 4 67 66 14 98,,
Club La Cavalerie,28 rue de la Cavalerie 34000 Montpellier,,,+33 4 67 52 77 92,,
MEDIATHEQUE Victor HUGO,,,,,,
"EHPAD ""Mathilde LARTIGUE""",50 rue Louis Pergaud 34000 Montpellier,,,+33 4 67 75 25 70,,
MEDIATHEQUE GARCIA LLORCA,,,,,,
Crèche Antigone,10 rue Jeanne D'Arc 34000 Montpellier,,,+33 4 67 64 28 15,Tous les ans,2020-11-10
"Maison pour tous  
Mélina Mercouri",842 rue de la Vieille Poste 34000 Montpellier,3.90814703437764,43.6135606367422,+33 4 99 92 23 80,Tous les ans,2019-01-10
Cimetière Saint-Etienne,2 Rue Richard Wright 34000 Montpellier,3.93489103090574,43.6158729699952,+33 4 34 88 92 09,Tous les ans,2019-05-15
Cuisine Centrale,950 allée de la Martelle 34070 Montpellier,3.84157511981743,43.5994202550643,+33 4 67 15 92 69,Tous les ans,2019-10-07
Centre de Culture Contemporaine La Panacée,14 rue école de Pharmacie 34000 Montpellier,3.8782667806068,43.6125997375577,+33 4 34 88 79 79,Tous les ans,2019-10-07
Ancien Hôtel de Ville (Poste de Police Municipale),1 place Françis Ponge 34000 Montpellier,3.88414277239073,43.6093009254496,+33 4 67 34 71 45,Tous les ans,2019-11-07
Centre de vaccination de la ville de montpellier,2 place Paul Bec 34000 Montpellier,3.88644613599591,43.608650752262,+33 4 67 02 26 63,Tous les ans,2019-11-07
DAE Extérieur rue syracuse,Rue Syracuse 34000,,,+33 4 67 34 70 26,,
Halte Garderie Mowgli,280 boulevard Pénélope 34000 Montpellier,,,+33 4 99 64 22 51,Tous les ans,2020-11-18
Crèche Henri SALVADOR,6 rue Boussinesq 34070 Montpellier,,,+33 4 30 00 98 79,Tous les ans,2020-11-13
Siège du CCAS (Banque d'Acceuil),125 place Thermidor 34000 Montpellier,,43.6020241317034,+33 4 99 52 77 53,,
Crèche Thérèse Sentis,655 av. Maréchel Leclerc 34070 Montpellier,,,+33 4 67 65 45 87,Tous les ans,2020-11-12
Club Laure Moulin,45 rue Frédéric Bazille 34000 Montpellier,,,+33 4 67 52 77 92,,
Club Aiguelongue,158 Rue Raoul Follereau 34000 Montpellier,,,+33 4 67 52 77 92,,
EHPAD Les Aubes,119 rue St André de Novigens 34000 Montpellier,,,+33 4 67 72 06 98,,
Club  Galzy,14 allée Clémenville 34 000 - Montpellier 34000 Montpellier,,,+33 4 67 52 77 92,,
Club Maillan,Rue Georges Brassens 34000 Montpellier,,,+33 4 67 52 77 92,,
PALAIS DES SPORTS R.BOUGNOL,1000 avenue du Val de Montferrand Montpellier,3.87431551914803,43.6380432875803,+33 4 67 52 76 14,,
Ecole maternelle Sergueï-Prokofiev - Ecole élémentaire Jean Zay,85 avenue Alphonse-Juin 34000 Montpellier,3.89809208181167,43.6188883739332,+33 4 67 02 66 35,Tous les ans,2019-12-01
Ecole élémentaire Germaine Richier,99 Avenue Jean Prat 34070 Montpellier,3.85284162357418,43.5904588270256,+33 4 67 99 25 90,Tous les ans,2019-12-01
Maison pour tous Marie Curie,13 allée Antonin Chauliac 34080 Montpellier,3.83067333287118,43.6128786344574,+33 4 67 75 10 34,Tous les ans,2019-11-01
Eglise Notre-Dame-des-Tables,43 Rue de L'Aiguillerie 34000 Montpellier,3.87957276977398,43.6120901983009,,Tous les ans,2019-12-01
chapelle de la résurrection - Theatre de la vista,170 Rue Joachim du Bellay 34070 Montpellier,3.8577379112732,43.6060649637651,+33 4 99 52 99 31,Tous les ans,2019-12-01
Halles Jacques Coeur,Boulevard D'Antigone 34000 Montpellier,3.88939149901486,43.6092379806075,+33 4 67 34 70 00,Tous les ans,2019-12-01
Ecole élémentaire Winston Churchill - Ecole maternelle Marceline Desbordes-Valmore,424-460 rue du Lavandin 34070 Montpellier,3.85476904201268,43.5995832643803,+33 4 67 42 54 64,Tous les ans,2019-12-01
Ecole maternelle Maria-Callas,843 rue de la Croix de Figuerolles 34070 Montpellier,3.84412603580079,43.6040816795899,+33 4 67 75 56 55,Tous les ans,2019-12-01
Ecole élémentaire Jean Mermoz -Ecole maternelle Vasco-de-Gama,196-156 rue de la Croix du Sud 34000 Montpellier,3.89205258481797,43.6141016426732,+33 4 67 65 04 66,Tous les ans,2019-12-01
Ecole élémentaire Benoite Groult,99 rue de Puech Villa 34000 Montpellier,3.83624344261754,43.6403091566517,+33 4 67 60 17 80,Tous les ans,2019-12-01
Ecole élémentaire Simon Bolivar,300 avenue de Barcelone 34080 Montpellier,3.81773091991616,43.62331360185,+33 4 67 75 34 69,Tous les ans,2019-12-01
Ecole élémentaire André Boulloche,123 rue de Lausanne 34080 Montpellier,3.81964149146731,43.6280064369903,+33 4 67 75 37 33,Tous les ans,2019-12-01
Ecole élémentaire Spinoza,110 rue Viollet-Le-Duc 34070 Montpellier,3.83715271208757,43.6083804643777,+33 4 67 75 34 63,Tous les ans,2019-12-01
Ecole élémentaire Jean Moulin,20 boulevard Mounié 34000 Montpellier,3.89150298321939,43.6187145693709,+33 4 67 72 68 17,Tous les ans,2019-12-01
Piscine PITOT,230 place Jacques Mirouze 34000 Montpellier,3.87042726007263,43.6124525152634,+33 4 67 52 58 89,,
Piscine A. NAKACHE,237 route de Vauguières Montpellier,3.90629920870056,43.6064088333911,+33 4 67 22 57 05,,
Piscine J. TARIS,67 rue L.Michel Montpellier,3.90104521170055,43.6205269603349,+33 4 67 79 03 11,,
Piscine J. VIVES,1933 avenue de Maurin Montpellier,3.8725825201908,43.5878357209346,+33 4 67 27 74 79,,
Piscine S. BERLIOUX,551 rue Métairie de Saysset Montpellier,3.89523251192244,43.590433374266,+33 4 67 65 38 71,,
Ecole maternelle Geneviève-Bon - Ecole élémentaire Louis Armstrong,971 rue Paul-Rimbaud 34080 Montpellier,3.83898290012738,43.6174980846812,+33 4 67 75 02 34,Tous les ans,2019-12-01
Ecole maternelle Indira-Gandhi,380 rue Pierre-Cardenal 34080 Montpellier,3.81976504102354,43.6399339318858,+33 4 67 75 35 45,Tous les ans,2019-12-01
Ecole élémentaire Blaise Pascal - Ecole maternelle Sarah-Bernhardt,100 rue Louis Lépine 34000 Montpellier,3.90770092827438,43.6121879360203,+33 4 67 22 11 72,Tous les ans,2019-12-01
Ecole maternelle James-Joyce,122 rue de Bologne 34080 Montpellier,3.81791314285696,43.6281074894343,+33 4 67 75 34 87,Tous les ans,2019-12-01
Ecole élémentaire Léopold Sedar Senghor,26 rue de Bologne 34080 Montpellier,3.81791532192905,43.6275077620567,+33 4 67 75 34 79,Tous les ans,2019-12-01
Ecole maternelle Robert-Surcouf -Ecole élémentaire Georges Simenon,215 boulevard Pédro-De-Luna 34070 Montpellier,3.8714435810918,43.5952872148722,+33 4 67 42 45 23,Tous les ans,2019-12-01
Ecole maternelle Jules-Michelet - Ecole élémentaire Joseph Delteil,Rue des Araucarias 34080 Montpellier,3.83873856808814,43.6156815982488,+33 4 67 10 06 05,Tous les ans,2019-12-01
Ecole maternelle Mozart,60 avenue D'Assas 34000 Montpellier,3.86164748235704,43.6169568463152,+33 4 67 63 15 61,Tous les ans,2019-12-01
Piscine centre nautique neptune,Montpellier,3.81486877448227,43.6203748790079,,,
Piscine Olympique Antigone,Montpellier,3.89308121814824,43.6074454556324,,,
Ecole élémentaire Jules Ferry,88 rue Antoine-Laurent de Jussieu 34090 Montpellier,3.87456248737726,43.6361784369411,+33 4 67 54 41 71,Tous les ans,2019-12-01
Ecole primaire Olympe-de-Gouges,1375 rue de Bugarel 34070 Montpellier,3.84625931433135,43.5909248113857,+33 4 67 99 18 21,Tous les ans,2019-12-01
Ecole élémentaire Julie Daubie,183 allée de L'Aqueduc 34080 Montpellier,3.84232778339953,43.6195753592669,+33 4 67 63 01 26,Tous les ans,2019-12-01
Ecole maternelle Paul-Eluard - Ecole élémentaire Jean Macé,219-289 rue de Saint Hilaire 34000 Montpellier,3.89640622981796,43.5929214621688,+33 4 67 64 40 54,Tous les ans,2019-12-01
Multi accueil La Coupole,45 place Zeus 34000 Montpellier,3.8909115988768,43.6078271911951,+33 4 67 64 06 62,Tous les ans,2019-12-01
Ecole élémentaire Léo Malet,5 allée Pierre Carabasse 34000 Montpellier,3.8316349046765,43.6128240251644,+33 4 67 75 46 45,Tous les ans,2019-12-01
Salle Polyvalente Espace Jacques 1er d'Aragon,117 rue des états Généraux 34000 Montpellier,3.89812267566427,43.6044300520134,+33 4 67 83 71 86,Tous les ans,2019-12-01
Zoo de Lunaret,50 avenue Agropolis 34090 Montpellier,3.87388024883192,43.6395873179815,+33 4 67 54 45 20,Tous les ans,2019-05-14
Service surveillance voie publique (ASVP),8 avenue Louis Blanc 34000 Montpellier,3.87964813129678,43.6144971002654,+33 4 99 58 80 34,Tous les ans,2019-11-07
Hotel de Ville Central park,1 place Georges Frêche 34000 Montpellier,3.89553805176529,43.5993615952129,+33 4 67 34 70 00,Tous les ans,2019-05-15
Poste de police Ecusson Centre ville,19 bis rue Durand 34000 Montpellier,3.87860752258093,43.6050174875771,+33 4 67 34 70 89,Tous les ans,2019-04-16
Unité Service Fourrière,1945 avenue de Toulouse 34070 Montpellier,3.85396085248997,43.587382545976,+33 4 34 46 68 58,Tous les ans,2019-11-07
Poste de police Hotel de ville,789 chemin de Moulares 34000 Montpellier,3.89399058643915,43.5988579814707,+33 4 67 34 88 30,Tous les ans,2019-10-07
Palais des sports Pierre-de-Coubertin,25 Rue de Gènes 34080 Montpellier,3.81388667740295,43.638296406947,+33 4 67 03 02 24,Tous les ans,2019-11-07
Gymnase François Spinosi,Rue Pierre Gilles de Gennes 34000 Montpellier,3.91771559166406,43.5989740313524,+33 4 67 15 90 35,Tous les ans,2018-12-06
Hotel de Ville Niveau moins 1 Etat Major COC,1 place Georges Frêche 34000 Montpellier,3.89683159240325,43.5983721693041,+33 4 67 34 59 25,Tous les ans,2019-05-15
STADE DE LA MOSSON,avenue de Heidelberg Montpellier,3.81316551139018,43.6218734259555,+33 4 67 75 74 16,,
Gymnase Albert Batteux,150 rue François-Joseph-Gossec 34000 Montpellier,3.85685693794324,43.5740760118369,+33 4 34 88 76 28,Tous les ans,2019-10-07
Gymnase Bernard-Jouanique,rue Jaques-Dalcroze 34080 Montpellier,3.8471372225702,43.6209658101339,+33 4 67 54 63 99,Tous les ans,2019-10-07
Stade Municipal Sabathé,18 rue Mas de Lemasson 34000 Montpellier,3.86890829584205,43.5980356410935,+33 4 67 47 10 22,Tous les ans,2019-09-10
Salle de Sports Alain Achille,1 place Marcel-Godechot 34000 Montpellier,3.86929205080085,43.6186499959297,+33 4 67 63 93 11,Tous les ans,2019-05-15
Gymnase Alain Le Hetet,237 route de Vauguières 34000 Montpellier,3.90603797982283,43.6056441965939,+33 4 67 82 76 71,Tous les ans,2019-09-10
"Maison pour tous   
Albert Dubout",1071 avenue de la Justice de Castelnau 34090 Montpellier,3.8825370479598,43.6263361536399,+33 4 67 02 68 58,Tous les ans,2019-01-10
"Maison pour tous 
Albert Camus",118 allée Maurice-Bonafos 34070 Montpellier,3.86999150922111,43.5968636380875,+33 4 67 27 33 41,Tous les ans,2019-01-10
Mairie annexe de proximité Mosson,111 place de Tipasa Mas de la Paillade 34080 Montpellier,3.81644666304565,43.6280352311183,+33 4 67 34 71 73,Tous les ans,2019-09-10
"Maison pour tous 
François Villon",55 rue des Araucarias 34080 Montpellier,3.83948430685078,43.6153031160824,+33 4 67 45 04 57,Tous les ans,2019-01-10
Ecole  Ludwig-Van-Beethoven,280 rue du mas Nouguier 34070 Montpellier,3.85685043630665,43.5849431576184,+33 4 67 27 66 71,Tous les ans,2019-12-01
Halles Castellane,Rue de la Loge 34000 Montpellier,3.87698855151732,43.6100748932829,+33 4 67 34 70 00,Tous les ans,2019-12-01
Halles des quatre saisons,Avenue D'Heidelberg 34000 Montpellier,3.81718369697817,43.62737098555,+33 4 67 34 70 00,Tous les ans,2019-12-01
Les Halles Laissac,Place Alexandre Laissac 34000 Montpellier,3.87665572976354,43.6061966446183,+33 4 67 34 70 00,Tous les ans,2019-12-01
Salle Guillaume-de-Nogaret,rue Pitot 34000 Montpellier,3.87039545403024,43.6121743782168,+33 4 67 34 71 33,Tous les ans,2019-12-01
Maison pour tous Georges Brassens,Place Jacques-Brel 34080 Montpellier,3.81801006500697,43.6421717315658,+33 4 67 40 40 11,Tous les ans,2019-12-01
STADE Y. DU MANOIR,avenue de la Vannière Montpellier,3.85003952477294,43.5936066049919,+33 4 67 13 60 00,,
Zoo de Lunaret,50 avenue Agropolis 34090 Montpellier,3.87322582931372,43.6403947990802,+33 4 67 54 45 20,Tous les ans,2019-04-16
Zoo de Lunaret,50 avenue Agropolis 34090 Montpellier,3.87324728568983,43.6403423899249,+33 4 67 54 45 20,Tous les ans,
DAE EXTERIEUR COMEDIE - COMMISSARIAT POLICE,2 Allée Jules Milhau 34000 Montpellier,3.88166695350884,43.6095475084495,+33 4 67 34 70 26,Tous les ans,2019-04-09
Maison pour tous L'Escoutaïre,67 rue des Razeteurs 34070 Montpellier,3.88435184442179,43.5954502975362,+33 4 67 65 32 70,Tous les ans,2019-11-15
Vestiaire/tribune CLAUDE BEAL,419 avenue du Dr Jacques Fourcade 34000 Montpellier,3.89668282061293,43.5911769531706,+33 4 67 65 70 86,Tous les ans,2019-11-01
Salle de sport Petit bard,1184 Rue Paul Rimbaud 34000,3.83642322163493,43.6171136119684,+33 4 67 45 21 89,Tous les ans,2019-11-01
Gymnase François Rabelais,Avenue de Malbosc 34000 Montpellier,3.83249755768483,43.6262609664851,+33 4 99 63 46 29,Tous les ans,2019-11-01
Gymnase Marcel Cerdan,260 rue du Pas-Du-Loup 34070 Montpellier,3.84723629666258,43.5995531419481,+33 4 67 42 68 16,Tous les ans,2019-11-01
Gymnase Roger Couderc,Avenue Villeneuve D'Angoulème 34070 Montpellier,3.86958483277162,43.5972023004916,+33 4 67 42 61 77,Tous les ans,2019-11-01
Gymnase Les Arts,Rue de Substantion 34000 Montpellier,3.88251807333355,43.6180224805144,+33 4 67 79 76 77,Tous les ans,2019-11-01
Gymnase Les Garrigues,avenue du Comté-De-Nice 34080 Montpellier,3.81542066540721,43.6422140271842,+33 4 67 61 94 85,Tous les ans,2019-11-01
Gymnase Bessière,175 rue Edouard-Villalonga 34000 Montpellier,3.90819879603806,43.6121384500637,+33 4 67 81 45 95,Tous les ans,2019-11-01
Gymnase Arthur Rimbaud,Rue Mohamed V 34080 Montpellier,3.82311817059698,43.616812102488,+33 4 67 52 30 80,Tous les ans,2019-11-01
Maison Pour Tous Jean-Pierre Caillens,Place de Tibériade 34070 Montpellier,3.87701683401441,43.5810091230333,+33 4 67 42 63 04,Tous les ans,2019-11-01
Maison pour tous Rosa-Lee Parks,10 rue François-Henri D'Harcourt 34080 Montpellier,3.83366483448939,43.6338355023598,+33 4 67 66 34 99,Tous les ans,2019-11-01
MUSEE FABRE,13 rue Montpelliéret Montpellier,3.88015207315543,43.6117202906494,+33 4 67 14 83 00,,
Maison pour tous Voltaire,3 Square Jean Monnet 34070 Montpellier,3.88872580812943,43.6040683970361,+33 4 99 52 68 45,Tous les ans,2019-11-01
Maison pour tous Frédéric Chopin,1 rue du Marché aux Bestiaux 34000 Montpellier,3.88400486812068,43.6162308803064,+33 4 34 46 67 87,Tous les ans,2019-11-01
Maison pour tous Paul-Emile-Victor,1247 avenue du Professeur Louis Ravas 34080 Montpellier,3.84255912284741,43.6244248427081,+33 4 99 58 13 58,Tous les ans,2019-11-01
Maison pour tous Marcel Pagnol,64 route de Lavérune 34070 Montpellier,3.85053159022006,43.6014566179891,+33 4 67 42 98 51,Tous les ans,2019-11-01
Maison pour tous Joseph Ricôme - Théàtre G.Philippe,7 rue Pagès 34070 Montpellier,3.86626314548635,43.6083935346071,+33 4 67 58 71 96,Tous les ans,2019-11-01
Maison pour tous Michel Colucci,205 rue de Cheng Du 34070 Montpellier,3.84033498625857,43.5936880350957,+33 4 67 42 52 85,Tous les ans,2019-11-01
Ecole maternelle François-Mitterrand,1330 rue Henri Lagattu 34080 Montpellier,3.83185886973498,43.6301415539281,+33 4 99 74 72 80,Tous les ans,2019-12-01
Ecole élementaire Chengdu,74 rue Ray Charles 34000 Montpellier,3.9041728175217,43.5990169701507,+33 4 67 22 64 20,Tous les ans,2019-12-01
Ecole élémentaire Painleve et maternelle Louise-Michel,501 avenue de la Pompignane 34000 Montpellier,3.89820129835213,43.6103086585132,+33 4 67 65 73 72,Tous les ans,2019-12-01
Ecole élémentaire André Malraux,rue Joan Miro 34000 Montpellier,3.90796877117967,43.6023794136883,+33 4 67 20 35 50,Tous les ans,2019-12-01
Ecole maternelle Aliénor-d'Aquitaine - Ecole élémentaire Ronsard,694-700 rue Jacques-Bounin 34070 Montpellier,3.86476856812559,43.5883499187015,+33 4 67 27 46 12,Tous les ans,2019-12-01
Ecole maternelle Hélène-Boucher - Ecole élémentaire Alain Savary,240 quai Flora Tristan 34070 Montpellier,3.83960207154238,43.5965413645581,+33 4 67 42 52 84,Tous les ans,2019-12-01
PATINOIRE VEGAPOLIS,Place de France Montpellier,3.91489064198098,43.602921092364,+33 4 99 52 26 00,,
CAP OMEGA,rond point Benjamin Franklin Montpellier,3.91427706563654,43.6186093179109,+33 4 67 59 30 01,,
Maison de la Démocratie,16 rue de la République 34000 Montpellier,3.87908236528558,43.6053221062472,+33 4 67 34 88 00,Tous les ans,2019-04-16
Cimetière Saint-Lazare,2 Rond-point du Souvenir Francais 34000 Montpellier,3.89042519654181,43.6259993549014,+33 4 34 88 91 88,Tous les ans,2019-09-10
S.F.M.A.,avenue albert Einstein Montpellier,3.93573865229816,43.615604406629,+33 4 67 22 83 78,,
DOMAINE DE LA PROVIDENCE,1784 avenue de Toulouse Montpellier,3.85389338631754,43.5886305715036,+33 4 99 64 25 80,,
RDC PAVILLON JUNON,50 Place Zeus Montpellier,3.89083244223548,43.6081660487656,+33 4 67 13 69 27,,
RDC PAVILLON ZEUS,50 Place Zeus Montpellier,3.89081690272683,43.607867073982,+33 4 67 13 69 27,,
PAVILLON ZEUS (Salle Marianne),50 Place Zeus Montpellier,3.8909210790639,43.6079754857748,+33 4 67 13 69 27,,
E.S.B.A.M.A.,130 rue Yehudi Montpellier,3.88438057985894,43.6169436621472,+33 4 99 58 32 87,,
MONTPELLIER DANCE,18 rue Sainte Ursule Montpellier,3.87836845320669,43.6139907693126,+33 4 67 60 83 60,,
TAM,Parking comédie centre Ville Montpellier,3.88022105891879,43.6089439482991,+33 4 67 07 63 79,,
TAM,Parking Corum Montpellier,3.8823869996754,43.614027141943,+33 4 67 07 63 79,,
CRR,14 rue Eugène Lisbonne Montpellier,3.87409663236646,43.6104339147789,+33 4 67 66 88 46,,
"Université Montpellier 1 UFR d'Economie  (1er étage, à côté des bureaux de l'administration)",avenue raymond Dugrand Montpellier,3.89956526846159,43.6037249115369,+33 4 34 43 24 44,,
"Université Montpellier 1 UFR AES (1er étage, en face de la salle des professeurs)",Espace richter avenue raymond Dugrand Montpellier,3.89991647950113,43.6031038239536,+33 4 34 43 23 33,,
Université Montpellier 1 ISEM IPAG (Loge),Espace richter Bât b Vendémiaire Montpellier,3.8990452616492,43.6042583122995,+33 4 67 15 85 46,,
Université Montpellier 1 Services Mutualisés Richter PC Securité,Espace richter Bât E Montpellier,3.89848332737752,43.6041787367752,,,
Université Montpellier 1 UFR Droit (accueil bâtiment1),39 rue de L'Université Montpellier,3.87717348844078,43.6140581900109,+33 4 67 61 54 00,,
Université Montpellier 1 UFR Droit (accueil bâtiment2),Montpellier,3.87633524704572,43.6138609616681,,,
Université Montpellier 1 UFR Médecine (Loge bâtiment Historique),2 rue Ecole de Médecine Montpellier,3.87354908506104,43.6129518919493,+33 4 67 60 10 00,,
Université Montpellier 1 UFR Médecine(Loge Institut biologie),Montpellier,3.87409703065037,43.6150688295983,,,
Université Montpellier 1 UFR Odontologie (Hall Premier Etage Bât A),545 avenue du Professeur J.L Viala Montpellier,3.82353503787645,43.6362496909879,+33 4 67 10 44 70,,
Université Montpellier 1 UFR Pharmacie (LogeBât A),15 avenue Charles Flahault Montpellier,3.86189867362492,43.6232361057971,+33 4 67 54 80 00,,
Université Montpellier 1 UFR Pharmacie (Galerie à côté de la pharmacie expérimentale),Montpellier,3.8603402170245,43.6220496076373,,,
Université Montpellier 1 UFR Staps (Bâtiment A),700 avenue du Pic Saint-Loup Montpellier,3.85386508994242,43.640831380761,+33 4 67 41 57 00,,
Université Montpellier 1  UFR Staps (P1),Montpellier,3.84875777279032,43.6393278747054,,,
MEDIATHEQUE E.ZOLA,218 Bd de l'aéroport International Montpellier,3.89315694705602,43.608483862643,+33 4 67 34 87 00,,
Université Montpellier 1  UFR Staps (Palais des Sports),Montpellier,3.84872343140147,43.640197118504,,,
Université Montpellier 2 PC Securite,Montpellier,3.86080921105514,43.6320479085899,+33 4 67 14 31 11,,
Université Montpellier 2 Secrétariat IAE,place Eugène Bataillon Montpellier,3.86173928351398,43.6324310691736,+33 4 67 14 31 11,,
Université Montpellier 2 Couloir  de la présidence 1er étage,Montpellier,3.86403642262064,43.6320955526935,+33 4 67 14 31 11,,
Université Montpellier 2 Laboratoire AREVA,Montpellier,3.86719128633918,43.6340354985462,+33 4 67 14 31 11,,
UniversitéMontpellier 2 SCOPPS,Montpellier,3.8665193877703,43.6329423332129,+33 4 67 14 31 11,,
Université Montpellier 2 Laboratoire L2C,Montpellier,3.86500069981502,43.6325272748877,+33 4 67 14 31 11,,
Université  Montpellier 2  Centre Sportif Universitaire     Piscine,Montpellier,3.86372264420178,43.6347707457061,+33 4 67 14 31 11,,
Université Montpellier 2  Centre Sportif Universitaire Gymnase,rue Emile Jeanbreau Montpellier,3.8641198049599,43.6344311397566,+33 4 67 14 31 11,,
Université Montpellier 2 HALL IEM,Montpellier,3.86621604792164,43.6350134802475,+33 4 67 14 31 11,,
Universite paul valery montpellier 3 Loge Entrée,aenue Val de Montferrand Montpellier,3.8698729699205,43.631099676961,+33 4 67 14 55 23,,
Universite paul valery  montpellier 3  batiment Marc Bloch,route de Mende Montpellier,3.86914573260106,43.632740409527,+33 4 67 14 55 23,,
Université Paul Valéry  montpellier 3 Site Saint Charles  Loge Entrée,rue du Professeur Henri Serre Montpellier,3.87378575738926,43.616562438846,+33 4 67 14 55 23,,
Montpellier Ecole National Supérieure de Chimie,8 rue de l'école Normale Montpellier,3.86759227817794,43.6208396376922,+33 4 67 14 72 83,,
Montpellier Ecole National Supérieure de Chimie (Laboratoire),104 rue de la Galéra Montpellier,3.83738327819023,43.6371761102564,+33 4 67 14 72 83,,
Montpellier Ecole National Supérieure de Chimie,220 rue de la Galéra Montpellier,3.83828532267566,43.6375711160617,+33 4 67 14 72 83,,
CROUS de MONTPELLIER Restaurants Universitaires  Boutonnet,2 rue Emile Duployé MONTPELLIEr Cedex Montpellier,3.8694077952186,43.6234756755059,+33 4 67 63 52 06,,
CROUS de MONTPELLIER Restaurants Universitaires Triolet,106 avenue Profeseur Joseph Anglada Montpellier,3.86018126793363,43.6311912855421,+33 4 67 63 50 16,,
CROUS de MONTPELLIER Restaurants Universitaires Vert-Bois,205 rue de la Chênaie Montpellier,3.87086356104298,43.6348289563195,+33 4 67 63 66 45,,
CROUS de MONTPELLIER Services Centraux,2 rue Monteil Montpellier,3.87001131725213,43.6224491764632,+33 4 67 41 50 08,,
CROUS de MONTPELLIER Restaurants Universitaires Richter,80 rue Brumaire Montpellier,3.89922794429122,43.6028938366167,+33 4 67 15 84 47,,
CREPS,2 avenue Charles Flahault Montpellier,3.86618005450302,43.6191123393872,,,
Maison des sports (Sport Et Psychologie) Hérault Sport,200 avenue du Père Soulas Montpellier,3.86583327274774,43.6183424189979,+33 4 67 54 82 29,,
Hérault Sport,747 avenue des apothicaires Parc Euromédecine Montpellier,3.83559889989769,43.6416646460533,+33 4 67 54 82 29,,
Lycée Frédéric Bazille,3224 route de Mende Montpellier,3.86390111725397,43.6460180785944,+33 4 67 63 89 87,,
Lycée Jean Mermoz,717 avenue Jean Mermoz Montpellier,3.89080547110243,43.6108635011925,+33 4 67 20 60 00,,
Lycée Léonard de Vinci,rue du Professeur Blayac Montpellier,3.82313205489235,43.6271809942454,+33 4 67 10 40 10,,
Lycée Jules Ferry,270 avenue de la Colline Montpellier,3.84226725112952,43.605252884695,+33 4 67 10 74 01,,
Caisse Primaire d'Assurance Maladie,29 cours Gambetta Montpellier,3.87110913258834,43.6065196452474,+33 4 99 52 54 49,,
Caisse Primaire d'Assurance Maladie,90 allée almicare Calvetti Montpellier,3.82126951487528,43.6322019208238,+33 4 99 52 54 49,,
Caisse d'assurance retraite et de la Santé au travail,29 cours Gambetta Montpellier,3.87064337089253,43.6068847469056,+33 4 67 12 94 72,,
Caisse d'assurance retraite et de la Santé au travail,101 place pierre Duhem Montpellier,3.91465549371452,43.6068978788984,+33 4 67 12 94 72,,
Préfecture de l'Hérault,34 Place des Martyrs de la Résistance Montpellier,3.87675684396933,43.6114960548742,+33 4 67 61 60 45,,
Cour d'appel,1 rue Foch Montpellier,3.87282077771908,43.6112848768186,+33 4 34 08 81 92,,
Tribunal de grande instance,Place Pierre Flotte Montpellier,3.8691479289519,43.6102006010178,+33 4 67 12 61 09,,
Gare Sncf de Montpellier St Roch,1 Place auguste Gibert Montpellier,3.88084499064934,43.6047523711786,+33 6 25 91 00 28,,
Hotel de Police de Montpellier,206 avenue du Comté de Melgueil Montpellier,3.89161634280513,43.6035139140821,+33 4 99 13 50 00,,
Pharmacie de L'Europe,2600 avenue de L'Europe Montpellier,3.82007582238242,43.6418758814019,+33 4 67 75 16 37,,
Pharmacie de l'ovalie,2750 Boulevard Paul Valery Montpellier,3.84964177363434,43.5950384385676,+33 4 67 27 71 72,,
Pharmacie Ravoire,33 rue du Faubourg Saint Jaumes Montpellier,3.86983035989801,43.6147553694929,+33 4 67 63 38 84,,
Citroen montpellier,730 avenue des pres D'Arenes Montpellier,3.88299726397185,43.5906567896867,+33 4 67 12 67 01,,
Grand Garage de l'Hérault Peugeot Montpellier  (commerce),905 rue de L'Industrie 34070 Montpellier,3.88118577437497,43.5829591232002,+33 4 67 06 25 02,,
Grand Garage de l'Hérault Peugeot Montpellier (atelier),905 rue de L'Industrie 34070 Montpellier,3.88146333986189,43.5835668518977,+33 4 67 06 25 02,,
Centre commercial Polygone  PC Sécurité  (es1 montpellier),1 rue des Pertuisanes Montpellier,3.88578386410133,43.6083221374792,+33 4 67 99 41 60,,
Fnac Montpellier,1 rue des Pertuisanes Montpellier,3.88567009594461,43.608533084106,+33 4 34 09 06 55,,
Galeries La Fayette,1 rue des Pertuisanes Montpellier,3.88553290689801,43.6081092145638,+33 4 67 64 83 00,,
Géant casino Prés d'Arènes (Pc Sécurité),504 avenue du mas D'Argelliers Montpellier,3.88808520626918,43.5862644458562,+33 4 67 86 43 69,,
Géant casino Celleneuve (Pc Sécurité),129 bis avenue de Lodève Montpellier,3.83992050905989,43.6125224311885,+33 4 67 86 43 69,,
Centre Commercial Odysseum,2 place de Lisbonne Montpellier,3.92046111883039,43.6045260380493,+33 4 67 13 50 55,,
Magasin IKEA,Odysseum Montpellier,3.92438334078154,43.6041477471678,,,
Chronopost,1129 rue de la Castelle Montpellier,3.86885456195379,43.5772303288348,+33 4 67 99 11 03,,
DELL,1 rond-point Benjamin Franklin Montpellier,3.91169364237597,43.6184228878598,+33 6 58 57 85 24,,
France 3 Sud Montpellier,10 allée John Napier Montpellier,3.90921456014705,43.6145659123288,+33 4 67 20 30 40,,
France Telecom,245 rue de la Galéra Montpellier,3.83704296453264,43.6384175373801,+33 4 67 14 66 66,,
Sanofi Aventis,371 rue professeur Blayac Montpellier,3.82943567841906,43.6234283009483,+33 4 99 77 78 79,,
Veolia Eau,765 rue Henri Becquerel Montpellier,3.91517282386098,43.6120967007913,+33 4 67 20 73 73,,
Banque de France,98 avenue de Lodève Montpellier,3.85350131999517,43.6102729686678,+33 4 67 06 79 74,,
Mutuelle des motards,1056 rue de la croix Verte Montpellier,3.84315523323025,43.6424574698295,+33 4 67 72 73 20,,
Mutuelle des motards,1027 rue de la croix Verte Montpellier,3.84351019571161,43.6430362841049,+33 4 67 72 73 20,,
Groupama Sud,Place Jean antoine de Chaptal Montpellier,3.867481832318,43.6031265540167,+33 4 67 34 78 86,,
Montpellier beton SERVANT Prestations,1 rue de la Première Écluse Montpellier,3.89578184236649,43.5877632340741,+33 4 67 92 15 10,,
Hôtel IBIS Centre Comédie,allée Jules Milhau Montpellier,3.88315926966268,43.6089881351732,+33 4 99 13 29 99,,
Hôtel IBIS Montpellier Sud,164 avenue Palavas Montpellier,3.89172751069681,43.5892502415571,+33 4 67 58 82 30,,
Hotel mercure,Carrefour de L'Aeroport Montpellier,3.89407184291324,43.6089445188651,+33 4 67 20 63 63,,
Hotel mercure centre,rue de la Spirale Montpellier,3.8854753573672,43.6090903135975,+33 4 67 99 89 89,,
Hôtel NOVOTEL,125 avenue Palavas Montpellier,3.89234988568983,43.5895487282724,+33 4 99 52 34 34,,
CRS 56,1 rue Louis Lépine Montpellier,3.90653256197039,43.6122198713679,+33 4 67 13 17 00,,
Accueil clinique du millenaire Accueil,220 bd Penelope Montpellier,3.91375495574723,43.6020754548258,+33 4 99 53 61 03,,
Accueil clinique du millenaire Urgences,220 bd Penelope Montpellier,3.91353994702831,43.6014966056336,+33 4 99 53 61 03,,
Ametra,201 place de Thessalie Montpellier,3.89226743701407,43.6075603899477,+33 4 67 84 76 40,,
apec,170 rue leon Blum Montpellier,3.89052747927575,43.6087911382346,,,
Arcade SFGE,rue de la Constituante Montpellier,3.89422319849901,43.6019066429198,,,
ASPM SECTION AFPS,1635 avenue albert Einstein Montpellier,3.91678045385988,43.611353296793,,,
Cafétéria UFR AES,257-269 rue Vendémiaire Montpellier,3.89935221425315,43.6030249922346,,,
Caisse MSA Languedoc,4 place Jean antoine de Chaptal Montpellier,3.867250286063,43.6029957689173,,,
Centre Mutualiste Neurologique PROPARA,263 rue du Caducée Montpellier,3.83221035574634,43.6433843141123,,,
Communaute d Agglomeration de Montpellier,50 place Zeus Montpellier,3.89064145141298,43.6076132315809,,,
D.D.S.I.S. HERAULT,2 rue Duval-Jouve Montpellier,3.86542464036371,43.6103113008688,,,
DDTM34 - site du Millénaire,233 rue Guglielmo Marconi Montpellier,3.91125187744154,43.6121329795403,,,
Ecole Supérieure Des Beaux Arts,130 rue Yehudi Menuhin Montpellier,3.88398301810422,43.6171934501755,,,
Faculté de Droit,rue de l'Ecole Mage Montpellier,3.87687940434081,43.6137133197333,,,
faculte de pharmacie,15 avenue charles Flahault Montpellier,3.86185837760728,43.6239507119399,,,
fafsea,2460 avenue albert Einstein Montpellier,3.92771430517088,43.6106200937034,,,
Hotel des impots,10 rue de Louvois Montpellier,3.81969693135514,43.6323422859628,,,
Inset de Montpellier,76 Place de la Révolution Montpellier,3.89825153894021,43.6039740534604,,,
maison agriculture,place Chaptal Montpellier,3.86633331762405,43.6038860774514,,,
TALCO LR,40 rue de Pinville Montpellier,3.90506059873315,43.6138087342656,,,
Zenith Sud,avenue albert Einstein Montpellier,3.93074699761313,43.6128228687641,,,
Action d'Urgence Internationale,1401 rue de Fontcouverte Montpellier,3.85255900020707,43.593528824292,,,
Cfpmea,501 des metairies de Saysset Montpellier,3.89423706945795,43.590608758839,,,
Amphitheatre d'O,121 rue de la Carriérasse Montpellier,3.83507761857429,43.6351213416664,,,
Bâtiment k Iut montpellier 2,139 avenue D'Occitanie Montpellier,3.85149583197922,43.6350358291583,,,
Bibliotheque st charles,rue auguste Broussonnet Montpellier,3.87258313923407,43.6155361284741,,,
Centre de formation professionnel croix rouge,rue de la Valesière Montpellier,3.83009542710286,43.6415334938949,,,
CHRU,avenue augustin Fliche Montpellier,3.86151287229827,43.6295976589593,,,
CHRU euromed,rue du Caduce Montpellier,3.8350137109333,43.6425510750446,,,
CHU Lapeyronie hall d'accueil,Pont Lapeyronie Montpellier,3.85207584346259,43.6301375251917,,,
CHRU lapeyronie,avenue du doyen gaston Giraud Montpellier,3.85081292585135,43.6313022653456,,,
Ipl santé envirronement durable Méditerrranée,778 rue de la croix Verte Montpellier,3.84083470538795,43.6447155958689,,,
Les Jardins de Grasse,1482 rue de Saint-Priest Montpellier,3.83534242876355,43.6375404973304,,,
Parcs Nationaux de France,1037 rue Jean François Breton Montpellier,3.87871734331072,43.6474178462261,,,
Cirad,avenue Agropolis Montpellier,3.86843080997092,43.6504884332442,,,
Boulodrome Bernard Gasset,122 avenue Maurice Planès Montpellier,3.84329173229139,43.5967806417754,,,
IRC KLESIA AGIRC ARRCO,26 allée Jules Milhau 34263 Montpellier,3.88335468668432,43.6090204702181,+33 4 67 58 56 46,,
GESTARE Foyer d'hebergement d'urgence OUSTAL,14 rue alfred Bruyas 34000 Montpellier,3.88173411450129,43.6080668596732,+33 4 67 58 90 21,,
Maison des adolescents de l'hérault (MDA34),9 rue de la République 34000 Montpellier,3.8781326569264,43.6059489536478,+33 4 67 92 99 19,,
Boulangerie Patisserie LES PAINS DE MILA,482 avenue du Mondial de Rugby 34070 Montpellier,3.8526285382251,43.5881764750795,+33 4 67 71 52 13,,
Extra SHOT (salon de thé),44 rue de L'Aiguillerie 34000 Montpellier,3.87914071648409,43.6118620114604,+33 7 68 20 18 69,,
Au pays du soleil Levant,46 rue du Faubourg du Courreau Montpellier,3.87016772275376,43.6085171469819,+33 6 13 72 06 10,,
Zoo de Lunaret,50 avenue Agropolis 34090 Montpellier,3.87319632529271,43.6404472080779,+33 4 67 54 45 20,Tous les ans,2019-04-16
Zoo de Lunaret,avenue Agropolis 34090 Montpellier,3.87346840734586,43.6409437259243,+33 4 67 54 45 20,Tous les ans,2019-05-14
Gymnase Jean Bouin,Avenue du Biterrois 34080 Montpellier,3.82081921967322,43.6327880433471,+33 4 67 75 44 43,Tous les ans,2019-11-01
Centre Culturel Rabelais,29 boulevard Sarrail 34000 Montpellier,3.88032026773112,43.6106902122358,+33 4 67 34 71 33,,
,1 place Jacques Mirouse 34000 Montpellier,3.86982233698134,43.6127835439949,,,
Maison pour tous André Chamson,105 rue Gustave Eiffel 34070 Montpellier,3.83522303051943,43.6092732449105,+33 4 67 75 10 55,Tous les ans,2019-12-01
